{"type": "FeatureCollection", "features": [ {"type": "Feature", "properties": {"norad_id": 66869, "name": "STARLINK-36092", "group": "last-30-days", "lat": -8.002412688788151, "lon": -133.85561705848974, "alt_km": 415.56667202510926, "timestamp": "2025-12-26T18:39:30.998271+00:00", "meta": {"OBJECT_NAME": "STARLINK-36092", "OBJECT_ID": "2025-281X", "EPOCH": "2025-12-26T14:00:04.000032", "MEAN_MOTION": 15.50499322, "ECCENTRICITY": 0.00011599, "INCLINATION": 43.0004, "RA_OF_ASC_NODE": 38.6027, "ARG_OF_PERICENTER": 257.2841, "MEAN_ANOMALY": 289.8924, "EPHEMERIS_TYPE": 0, "CLASSIFICATION_TYPE": "U", "NORAD_CAT_ID": 66869, "ELEMENT_SET_NO": 999, "REV_AT_EPOCH": 364, "BSTAR": 0.0021955766, "MEAN_MOTION_DOT": 0.00130256, "MEAN_MOTION_DDOT": 0}, "tle": {"line1": "1 66869U 25281X   25360.58337963  .00130256  00000+0  21956-2 0  9994", "line2": "2 66869  43.0004  38.6027 0001159 257.2841 289.8924 15.50499322  3644"}}, "geometry": {"type": "Point", "coordinates": [-133.85561705848974, -8.002412688788151]}}, {"type": "Feature", "properties": {"norad_id": 66870, "name": "STARLINK-36114", "group": "last-30-days", "lat": -9.288338356519908, "lon": -132.42944337565527, "alt_km": 415.6504106893826, "timestamp": "2025-12-26T18:39:30.998283+00:00", "meta": {"OBJECT_NAME": "STARLINK-36114", "OBJECT_ID": "2025-281Y", "EPOCH": "2025-12-26T14:00:04.000032", "MEAN_MOTION": 15.50501156, "ECCENTRICITY": 0.00010789, "INCLINATION": 43.0003, "RA_OF_ASC_NODE": 38.5977, "ARG_OF_PERICENTER": 252.3917, "MEAN_ANOMALY": 296.6944, "EPHEMERIS_TYPE": 0, "CLASSIFICATION_TYPE": "U", "NORAD_CAT_ID": 66870, "ELEMENT_SET_NO": 999, "REV_AT_EPOCH": 351, "BSTAR": 0.0021936513, "MEAN_MOTION_DOT": 0.00130148, "MEAN_MOTION_DDOT": 0}, "tle": {"line1": "1 66870U 25281Y   25360.58337963  .00130148  00000+0  21937-2 0  9995", "line2": "2 66870  43.0003  38.5977 0001078 252.3917 296.6944 15.50501156  3511"}}, "geometry": {"type": "Point", "coordinates": [-132.42944337565527, -9.288338356519908]}}, {"type": "Feature", "properties": {"norad_id": 66871, "name": "STARLINK-36095", "group": "last-30-days", "lat": -10.579060058600664, "lon": -130.9810344968275, "alt_km": 415.8196876794964, "timestamp": "2025-12-26T18:39:30.998296+00:00", "meta": {"OBJECT_NAME": "STARLINK-36095", "OBJECT_ID": "2025-281Z", "EPOCH": "2025-12-26T14:00:04.000032", "MEAN_MOTION": 15.50500438, "ECCENTRICITY": 9.031e-05, "INCLINATION": 43.0003, "RA_OF_ASC_NODE": 38.5925, "ARG_OF_PERICENTER": 250.8299, "MEAN_ANOMALY": 300.1828, "EPHEMERIS_TYPE": 0, "CLASSIFICATION_TYPE": "U", "NORAD_CAT_ID": 66871, "ELEMENT_SET_NO": 999, "REV_AT_EPOCH": 364, "BSTAR": 0.0022002093, "MEAN_MOTION_DOT": 0.00130542, "MEAN_MOTION_DDOT": 0}, "tle": {"line1": "1 66871U 25281Z   25360.58337963  .00130542  00000+0  22002-2 0  9998", "line2": "2 66871  43.0003  38.5925 0000903 250.8299 300.1828 15.50500438  3645"}}, "geometry": {"type": "Point", "coordinates": [-130.9810344968275, -10.579060058600664]}}, {"type": "Feature", "properties": {"norad_id": 66872, "name": "STARLINK-36082", "group": "last-30-days", "lat": -11.849051662850279, "lon": -129.53619400144711, "alt_km": 415.8814072423311, "timestamp": "2025-12-26T18:39:30.998306+00:00", "meta": {"OBJECT_NAME": "STARLINK-36082", "OBJECT_ID": "2025-281AA", "EPOCH": "2025-12-26T14:00:04.000032", "MEAN_MOTION": 15.50499384, "ECCENTRICITY": 0.00012025, "INCLINATION": 43.0003, "RA_OF_ASC_NODE": 38.5876, "ARG_OF_PERICENTER": 255.4873, "MEAN_ANOMALY": 297.4367, "EPHEMERIS_TYPE": 0, "CLASSIFICATION_TYPE": "U", "NORAD_CAT_ID": 66872, "ELEMENT_SET_NO": 999, "REV_AT_EPOCH": 351, "BSTAR": 0.0021839356, "MEAN_MOTION_DOT": 0.00129552, "MEAN_MOTION_DDOT": 0}, "tle": {"line1": "1 66872U 25281AA  25360.58337963  .00129552  00000+0  21839-2 0  9995", "line2": "2 66872  43.0003  38.5876 0001202 255.4873 297.4367 15.50499384  3512"}}, "geometry": {"type": "Point", "coordinates": [-129.53619400144711, -11.849051662850279]}}, {"type": "Feature", "properties": {"norad_id": 66873, "name": "STARLINK-36128", "group": "last-30-days", "lat": -15.6297121789449, "lon": -125.09182339802493, "alt_km": 416.1416002170745, "timestamp": "2025-12-26T18:39:30.998316+00:00", "meta": {"OBJECT_NAME": "STARLINK-36128", "OBJECT_ID": "2025-281AB", "EPOCH": "2025-12-26T14:00:04.000032", "MEAN_MOTION": 15.5050207, "ECCENTRICITY": 0.00011269, "INCLINATION": 43.0004, "RA_OF_ASC_NODE": 38.5726, "ARG_OF_PERICENTER": 248.0443, "MEAN_ANOMALY": 310.6266, "EPHEMERIS_TYPE": 0, "CLASSIFICATION_TYPE": "U", "NORAD_CAT_ID": 66873, "ELEMENT_SET_NO": 999, "REV_AT_EPOCH": 364, "BSTAR": 0.0021907927, "MEAN_MOTION_DOT": 0.0012998, "MEAN_MOTION_DDOT": 0}, "tle": {"line1": "1 66873U 25281AB  25360.58337963  .00129980  00000+0  21908-2 0  9998", "line2": "2 66873  43.0004  38.5726 0001126 248.0443 310.6266 15.50502070  3641"}}, "geometry": {"type": "Point", "coordinates": [-125.09182339802493, -15.6297121789449]}}, {"type": "Feature", "properties": {"norad_id": 66874, "name": "STARLINK-36129", "group": "last-30-days", "lat": -13.116052430678126, "lon": -128.07241830222748, "alt_km": 416.0053176036181, "timestamp": "2025-12-26T18:39:30.998325+00:00", "meta": {"OBJECT_NAME": "STARLINK-36129", "OBJECT_ID": "2025-281AC", "EPOCH": "2025-12-26T14:00:04.000032", "MEAN_MOTION": 15.50511103, "ECCENTRICITY": 0.00010897, "INCLINATION": 43.0002, "RA_OF_ASC_NODE": 38.5829, "ARG_OF_PERICENTER": 255.9947, "MEAN_ANOMALY": 298.8343, "EPHEMERIS_TYPE": 0, "CLASSIFICATION_TYPE": "U", "NORAD_CAT_ID": 66874, "ELEMENT_SET_NO": 999, "REV_AT_EPOCH": 364, "BSTAR": 0.0021336123, "MEAN_MOTION_DOT": 0.00126563, "MEAN_MOTION_DDOT": 0}, "tle": {"line1": "1 66874U 25281AC  25360.58337963  .00126563  00000+0  21336-2 0  9998", "line2": "2 66874  43.0002  38.5829 0001089 255.9947 298.8343 15.50511103  3648"}}, "geometry": {"type": "Point", "coordinates": [-128.07241830222748, -13.116052430678126]}}, {"type": "Feature", "properties": {"norad_id": 66875, "name": "STARLINK-36053", "group": "last-30-days", "lat": -16.868989132623703, "lon": -123.57801148772016, "alt_km": 416.26547725025557, "timestamp": "2025-12-26T18:39:30.998337+00:00", "meta": {"OBJECT_NAME": "STARLINK-36053", "OBJECT_ID": "2025-281AD", "EPOCH": "2025-12-26T14:00:04.000032", "MEAN_MOTION": 15.50497863, "ECCENTRICITY": 0.00011297, "INCLINATION": 43.0003, "RA_OF_ASC_NODE": 38.5671, "ARG_OF_PERICENTER": 249.6599, "MEAN_ANOMALY": 310.9287, "EPHEMERIS_TYPE": 0, "CLASSIFICATION_TYPE": "U", "NORAD_CAT_ID": 66875, "ELEMENT_SET_NO": 999, "REV_AT_EPOCH": 364, "BSTAR": 0.0022181808, "MEAN_MOTION_DOT": 0.00131617, "MEAN_MOTION_DDOT": 0}, "tle": {"line1": "1 66875U 25281AD  25360.58337963  .00131617  00000+0  22182-2 0  9995", "line2": "2 66875  43.0003  38.5671 0001129 249.6599 310.9287 15.50497863  3642"}}, "geometry": {"type": "Point", "coordinates": [-123.57801148772016, -16.868989132623703]}}, {"type": "Feature", "properties": {"norad_id": 66876, "name": "STARLINK-35702", "group": "last-30-days", "lat": -14.376496680582436, "lon": -126.59150657949827, "alt_km": 416.14135429420367, "timestamp": "2025-12-26T18:39:30.998347+00:00", "meta": {"OBJECT_NAME": "STARLINK-35702", "OBJECT_ID": "2025-281AE", "EPOCH": "2025-12-26T14:00:04.000032", "MEAN_MOTION": 15.50508306, "ECCENTRICITY": 0.00010548, "INCLINATION": 43.0002, "RA_OF_ASC_NODE": 38.578, "ARG_OF_PERICENTER": 256.9447, "MEAN_ANOMALY": 299.8026, "EPHEMERIS_TYPE": 0, "CLASSIFICATION_TYPE": "U", "NORAD_CAT_ID": 66876, "ELEMENT_SET_NO": 999, "REV_AT_EPOCH": 364, "BSTAR": 0.0021573379, "MEAN_MOTION_DOT": 0.00127985, "MEAN_MOTION_DDOT": 0}, "tle": {"line1": "1 66876U 25281AE  25360.58337963  .00127985  00000+0  21573-2 0  9992", "line2": "2 66876  43.0002  38.5780 0001054 256.9447 299.8026 15.50508306  3644"}}, "geometry": {"type": "Point", "coordinates": [-126.59150657949827, -14.376496680582436]}}, {"type": "Feature", "properties": {"norad_id": 66877, "name": "ZQ-3 R/B", "group": "last-30-days", "lat": -40.25688876500703, "lon": -30.693728372210664, "alt_km": 387.97340338293634, "timestamp": "2025-12-26T18:39:30.998358+00:00", "meta": {"OBJECT_NAME": "ZQ-3 R/B", "OBJECT_ID": "2025-282A", "EPOCH": "2025-12-26T10:49:13.878048", "MEAN_MOTION": 14.8748258, "ECCENTRICITY": 0.06634594, "INCLINATION": 56.9486, "RA_OF_ASC_NODE": 4.07, "ARG_OF_PERICENTER": 244.228, "MEAN_ANOMALY": 108.8868, "EPHEMERIS_TYPE": 0, "CLASSIFICATION_TYPE": "U", "NORAD_CAT_ID": 66877, "ELEMENT_SET_NO": 999, "REV_AT_EPOCH": 341, "BSTAR": 0.00015501615, "MEAN_MOTION_DOT": 0.00937851, "MEAN_MOTION_DDOT": 7.983106e-06}, "tle": {"line1": "1 66877U 25282A   25360.45085507  .00937851  79831-5  15502-3 0  9995", "line2": "2 66877  56.9486   4.0700 0663459 244.2280 108.8868 14.87482580  3414"}}, "geometry": {"type": "Point", "coordinates": [-30.693728372210664, -40.25688876500703]}}, {"type": "Feature", "properties": {"norad_id": 66878, "name": "STARLINK-35866", "group": "last-30-days", "lat": 4.673700485092623, "lon": 7.574252873037639, "alt_km": 401.89822678247947, "timestamp": "2025-12-26T18:39:30.998369+00:00", "meta": {"OBJECT_NAME": "STARLINK-35866", "OBJECT_ID": "2025-283A", "EPOCH": "2025-12-26T14:00:04.000032", "MEAN_MOTION": 15.55987103, "ECCENTRICITY": 0.00010087, "INCLINATION": 53.1593, "RA_OF_ASC_NODE": 4.9971, "ARG_OF_PERICENTER": 78.2406, "MEAN_ANOMALY": 280.3495, "EPHEMERIS_TYPE": 0, "CLASSIFICATION_TYPE": "U", "NORAD_CAT_ID": 66878, "ELEMENT_SET_NO": 999, "REV_AT_EPOCH": 465, "BSTAR": -0.032288656, "MEAN_MOTION_DOT": -0.02040949, "MEAN_MOTION_DDOT": 0}, "tle": {"line1": "1 66878U 25283A   25360.58337963 -.02040949  00000+0 -32289-1 0  9999", "line2": "2 66878  53.1593   4.9971 0001008  78.2406 280.3495 15.55987103  4659"}}, "geometry": {"type": "Point", "coordinates": [7.574252873037639, 4.673700485092623]}}]}